{"type":"FeatureCollection","features":[{"type":"Feature","geometry":{"type":"Polygon","coordinates":[[[-46.8007,-23.4704],[-46.8064,-23.4759],[-46.8082,-23.4846],[-46.8149,-23.4856],[-46.8209,-23.4805],[-46.8353,-23.4846],[-46.8487,-23.4809],[-46.8616,-23.4829],[-46.8697,-23.4774],[-46.8776,-23.4801],[-46.8807,-23.4722],[-46.8884,-23.4747],[-46.8887,-23.4841],[-46.899,-23.4911],[-46.9126,-23.4913],[-46.9197,-23.4871],[-46.9366,-23.4878],[-46.9533,-23.4838],[-46.9645,-23.4987],[-46.9549,-23.5046],[-46.9455,-23.5048],[-46.9296,-23.5132],[-46.9152,-23.5125],[-46.9144,-23.5186],[-46.9032,-23.5195],[-46.8941,-23.5258],[-46.8946,-23.5385],[-46.8907,-23.5501],[-46.8864,-23.5532],[-46.8726,-23.5504],[-46.8606,-23.5448],[-46.8625,-23.5305],[-46.8544,-23.5166],[-46.847,-23.5162],[-46.835,-23.511],[-46.8282,-23.5172],[-46.8174,-23.5207],[-46.8085,-23.51],[-46.8118,-23.498],[-46.8069,-23.4931],[-46.7995,-23.4714],[-46.8007,-23.4704]]]},"properties":{"codarea":"3505708"}},{"type":"Feature","geometry":{"type":"Polygon","coordinates":[[[-46.9288,-23.3875],[-46.9096,-23.3958],[-46.8949,-23.4],[-46.8819,-23.3959],[-46.8673,-23.4052],[-46.8693,-23.415],[-46.8628,-23.4195],[-46.8423,-23.4212],[-46.8339,-23.4291],[-46.8233,-23.4224],[-46.8197,-23.4179],[-46.8262,-23.4089],[-46.823,-23.401],[-46.8237,-23.331],[-46.8254,-23.3245],[-46.8217,-23.3141],[-46.833,-23.3104],[-46.8408,-23.3023],[-46.8428,-23.292],[-46.8381,-23.2878],[-46.849,-23.2856],[-46.8675,-23.2779],[-46.8778,-23.2881],[-46.8861,-23.291],[-46.887,-23.2962],[-46.9019,-23.3076],[-46.9228,-23.3081],[-46.9309,-23.3117],[-46.9379,-23.3219],[-46.9385,-23.3479],[-46.9409,-23.3519],[-46.9328,-23.3633],[-46.9275,-23.3562],[-46.9173,-23.3563],[-46.9116,-23.353],[-46.9029,-23.3585],[-46.9023,-23.3664],[-46.9208,-23.3769],[-46.9319,-23.3791],[-46.9288,-23.3875]]]},"properties":{"codarea":"3509205"}},{"type":"Feature","geometry":{"type":"Polygon","coordinates":[[[-46.876,-23.5653],[-46.8677,-23.5759],[-46.8562,-23.5816],[-46.8478,-23.5828],[-46.8432,-23.5772],[-46.8346,-23.5767],[-46.8248,-23.5839],[-46.8173,-23.5819],[-46.8144,-23.5694],[-46.8206,-23.5588],[-46.8218,-23.5489],[-46.8178,-23.5418],[-46.8174,-23.5207],[-46.8282,-23.5172],[-46.835,-23.511],[-46.847,-23.5162],[-46.8544,-23.5166],[-46.8625,-23.5305],[-46.8606,-23.5448],[-46.8636,-23.5547],[-46.8724,-23.5543],[-46.876,-23.5653]]]},"properties":{"codarea":"3510609"}},{"type":"Feature","geometry":{"type":"Polygon","coordinates":[[[-46.9111,-23.5631],[-46.9076,-23.5536],[-46.917,-23.5459],[-46.9163,-23.5363],[-46.9225,-23.523],[-46.929,-23.5235],[-46.9296,-23.5132],[-46.9455,-23.5048],[-46.9549,-23.5046],[-46.9645,-23.4987],[-46.9663,-23.5014],[-46.9855,-23.5036],[-46.995,-23.507],[-46.997,-23.522],[-46.9916,-23.5294],[-47.0126,-23.5361],[-47.0119,-23.5504],[-47.0067,-23.5549],[-47.0207,-23.5674],[-47.0281,-23.5813],[-47.0183,-23.5851],[-47.0076,-23.578],[-46.9966,-23.5809],[-47.0003,-23.5903],[-46.9882,-23.6029],[-46.9815,-23.6022],[-46.9617,-23.6025],[-46.9568,-23.5907],[-46.9488,-23.5862],[-46.9398,-23.5709],[-46.9293,-23.5656],[-46.9111,-23.5631]]]},"properties":{"codarea":"3522505"}},{"type":"Feature","geometry":{"type":"Polygon","coordinates":[[[-46.9296,-23.5132],[-46.929,-23.5235],[-46.9225,-23.523],[-46.9163,-23.5363],[-46.917,-23.5459],[-46.9076,-23.5536],[-46.9111,-23.5631],[-46.9025,-23.5686],[-46.8865,-23.5694],[-46.876,-23.5653],[-46.8724,-23.5543],[-46.8636,-23.5547],[-46.8606,-23.5448],[-46.8726,-23.5504],[-46.8864,-23.5532],[-46.8907,-23.5501],[-46.8946,-23.5385],[-46.8941,-23.5258],[-46.9032,-23.5195],[-46.9144,-23.5186],[-46.9152,-23.5125],[-46.9296,-23.5132]]]},"properties":{"codarea":"3525003"}},{"type":"Feature","geometry":{"type":"Polygon","coordinates":[[[-46.8073,-23.2551],[-46.8206,-23.2594],[-46.8275,-23.2504],[-46.8487,-23.2395],[-46.8554,-23.2174],[-46.8538,-23.2006],[-46.8466,-23.1922],[-46.8399,-23.1929],[-46.8328,-23.1844],[-46.8252,-23.182],[-46.8078,-23.1898],[-46.7992,-23.188],[-46.7908,-23.1834],[-46.7939,-23.1761],[-46.7864,-23.1532],[-46.7971,-23.1542],[-46.8049,-23.1486],[-46.8083,-23.139],[-46.8,-23.1316],[-46.7924,-23.1186],[-46.7953,-23.1096],[-46.7926,-23.1028],[-46.8049,-23.101],[-46.8162,-23.1064],[-46.8195,-23.0993],[-46.8281,-23.0969],[-46.8348,-23.0996],[-46.8469,-23.0976],[-46.8546,-23.0829],[-46.8653,-23.0764],[-46.8734,-23.0835],[-46.8784,-23.0923],[-46.8924,-23.0953],[-46.9086,-23.0954],[-46.916,-23.102],[-46.9227,-23.0986],[-46.9386,-23.0962],[-46.9465,-23.1111],[-46.9558,-23.1079],[-46.9737,-23.1119],[-46.9756,-23.1191],[-46.9847,-23.1212],[-46.9955,-23.1165],[-47.0046,-23.1181],[-47.0041,-23.1248],[-47.0203,-23.1411],[-47.0243,-23.1509],[-47.0197,-23.1635],[-47.0144,-23.1663],[-47.0153,-23.1818],[-47.0082,-23.1887],[-47.0218,-23.1924],[-47.0289,-23.2036],[-47.021,-23.2236],[-47.0284,-23.2367],[-47.0268,-23.2474],[-47.0176,-23.2499],[-47.0142,-23.2636],[-47.0033,-23.2679],[-46.9911,-23.26],[-46.9698,-23.2604],[-46.9713,-23.2687],[-46.9634,-23.2835],[-46.967,-23.2982],[-46.9723,-23.3012],[-46.968,-23.3113],[-46.9676,-23.3209],[-46.9611,-23.3223],[-46.9591,-23.3268],[-46.9379,-23.3219],[-46.9309,-23.3117],[-46.9228,-23.3081],[-46.9019,-23.3076],[-46.887,-23.2962],[-46.8861,-23.291],[-46.8778,-23.2881],[-46.8675,-23.2779],[-46.849,-23.2856],[-46.8381,-23.2878],[-46.8321,-23.2791],[-46.8142,-23.2821],[-46.8142,-23.2774],[-46.8035,-23.2711],[-46.8026,-23.2571],[-46.8073,-23.2551]]]},"properties":{"codarea":"3525904"}},{"type":"Feature","geometry":{"type":"Polygon","coordinates":[[[-46.8078,-23.6091],[-46.8089,-23.5984],[-46.8064,-23.584],[-46.7952,-23.5825],[-46.786,-23.5745],[-46.7731,-23.5701],[-46.7602,-23.555],[-46.76,-23.5292],[-46.7485,-23.5237],[-46.764,-23.5064],[-46.756,-23.495],[-46.7663,-23.4913],[-46.7698,-23.4768],[-46.7751,-23.4718],[-46.7748,-23.4644],[-46.787,-23.4657],[-46.796,-23.4629],[-46.7995,-23.4714],[-46.8069,-23.4931],[-46.8118,-23.498],[-46.8085,-23.51],[-46.8174,-23.5207],[-46.8178,-23.5418],[-46.8218,-23.5489],[-46.8206,-23.5588],[-46.8144,-23.5694],[-46.8173,-23.5819],[-46.8133,-23.5935],[-46.8176,-23.5989],[-46.8078,-23.6091]]]},"properties":{"codarea":"3534401"}},{"type":"Feature","geometry":{"type":"Polygon","coordinates":[[[-47.0375,-23.4356],[-47.0236,-23.4324],[-47.01,-23.4328],[-46.9961,-23.4295],[-46.9848,-23.4328],[-46.9709,-23.4255],[-46.9656,-23.4123],[-46.9512,-23.409],[-46.9453,-23.4029],[-46.9498,-23.3926],[-46.9288,-23.3875],[-46.9319,-23.3791],[-46.9208,-23.3769],[-46.9023,-23.3664],[-46.9029,-23.3585],[-46.9116,-23.353],[-46.9173,-23.3563],[-46.9275,-23.3562],[-46.9328,-23.3633],[-46.9409,-23.3519],[-46.9385,-23.3479],[-46.9379,-23.3219],[-46.9591,-23.3268],[-46.9633,-23.3238],[-46.9837,-23.3336],[-46.9918,-23.3339],[-47.0154,-23.3403],[-47.0187,-23.3454],[-47.0306,-23.346],[-47.0429,-23.3523],[-47.0393,-23.3672],[-47.0306,-23.3717],[-47.0427,-23.3876],[-47.0361,-23.3991],[-47.0407,-23.4238],[-47.0364,-23.4259],[-47.0375,-23.4356]]]},"properties":{"codarea":"3539103"}},{"type":"Feature","geometry":{"type":"Polygon","coordinates":[[[-46.8233,-23.4224],[-46.8339,-23.4291],[-46.8423,-23.4212],[-46.8628,-23.4195],[-46.8693,-23.415],[-46.8673,-23.4052],[-46.8819,-23.3959],[-46.8949,-23.4],[-46.9096,-23.3958],[-46.9288,-23.3875],[-46.9498,-23.3926],[-46.9453,-23.4029],[-46.9512,-23.409],[-46.9656,-23.4123],[-46.9709,-23.4255],[-46.9848,-23.4328],[-46.9961,-23.4295],[-47.01,-23.4328],[-47.0236,-23.4324],[-47.0375,-23.4356],[-47.0293,-23.4425],[-47.0107,-23.4464],[-47.014,-23.4578],[-47.0129,-23.4678],[-47.0172,-23.4731],[-47.0089,-23.4947],[-47.0009,-23.5057],[-46.995,-23.507],[-46.9855,-23.5036],[-46.9663,-23.5014],[-46.9645,-23.4987],[-46.9533,-23.4838],[-46.9366,-23.4878],[-46.9197,-23.4871],[-46.9126,-23.4913],[-46.899,-23.4911],[-46.8887,-23.4841],[-46.8884,-23.4747],[-46.8807,-23.4722],[-46.8776,-23.4801],[-46.8697,-23.4774],[-46.8616,-23.4829],[-46.8487,-23.4809],[-46.8353,-23.4846],[-46.8209,-23.4805],[-46.8149,-23.4856],[-46.8082,-23.4846],[-46.8064,-23.4759],[-46.8007,-23.4704],[-46.8054,-23.4625],[-46.8115,-23.4369],[-46.8233,-23.4224]]]},"properties":{"codarea":"3547304"}}]}